satname,norad_id,inclination_deg,eccentricity,mean_motion_rev_per_day,perigee_km,apogee_km,l1,l2
STARLINK-1460,45676,53.1577,0.0001463,15.29360018,476.7212396148325,478.7272646172014,1 45676U 20035V   26074.60731671 -.00000471  00000+0 -39925-5 0  9994,2 45676  53.1577  37.4522 0001463  94.8249 265.2918 15.29360018319620
STARLINK-1392,45677,53.1567,0.0002211,15.29364314,476.1955852362362,479.2272414046074,1 45677U 20035W   26074.60383456  .00001187  00000+0  53471-4 0  9993,2 45677  53.1567  37.3236 0002211  80.0915 280.0335 15.29364314319665
STARLINK-1394,45679,53.0504,0.0003459,15.51060383,411.2795706878869,415.97811429772264,1 45679U 20035Y   26074.80513449  .00096002  00000+0  16098-2 0  9996,2 45679  53.0504   7.1990 0003459 148.1003 212.0216 15.51060383320106
STARLINK-1402,45685,53.0482,0.0001567,15.45971514,427.4583616083164,429.59156946831536,1 45685U 20035AE  26074.92777650  .00071180  00000+0  14327-2 0  9995,2 45685  53.0482 353.6658 0001567 200.6935 159.4008 15.45971514320310
STARLINK-1404,45686,53.163,0.0001297,15.30568774,473.2254608331614,475.00293479387346,1 45686U 20035AF  26074.83507034  .00052192  00000+0  17420-2 0  9992,2 45686  53.1630  21.1492 0001297  86.4334 273.6815 15.30568774319916
STARLINK-1413,45689,53.1614,8.14e-05,15.30200568,474.6555107538288,475.77123619463146,1 45689U 20035AJ  26074.58049794 -.00000032  00000+0  11020-4 0  9990,2 45689  53.1614  22.2152 0000814  85.9471 274.1622 15.30200568319798
STARLINK-1417,45693,53.0518,0.0001758,15.12933914,526.0441889434705,528.4721258808167,1 45693U 20035AN  26074.14769735  .00030150  00000+0  17009-2 0  9995,2 45693  53.0518  29.5650 0001758 244.2117 115.8694 15.12933914319724
STARLINK-1420,45695,53.0532,0.0003821,15.55066803,399.3677737746202,404.5491227161692,1 45695U 20035AQ  26074.91500455  .00135145  00000+0  19484-2 0  9993,2 45695  53.0532 352.3529 0003821 131.7055 228.4283 15.55066803320322
STARLINK-1422,45696,53.1624,0.0001215,15.30208809,474.35608837858945,476.02144654008225,1 45696U 20035AR  26074.13066631  .00002179  00000+0  85661-4 0  9993,2 45696  53.1624  24.3083 0001215 101.6960 258.4177 15.30208809319806
STARLINK-1351,45697,53.053,0.0003984,15.53707091,403.2107965072055,408.61632799520703,1 45697U 20035AS  26074.96128009  .00091488  00000+0  13960-2 0  9995,2 45697  53.0530 351.3922 0003984 154.9100 205.2104 15.53707091320342
STARLINK-1398,45699,53.0318,0.0005161,16.01517922,266.78328544658143,273.64571386452553,1 45699U 20035AU  26074.89419704  .00517893  13071-3  90755-3 0  9991,2 45699  53.0318 267.1938 0005161 253.2011 106.8453 16.01517922321511
STARLINK-1400,45700,53.0508,0.000795,15.51729281,406.2789998561675,417.0748039602022,1 45700U 20035AV  26074.93798348  .00072740  00000+0  11953-2 0  9996,2 45700  53.0508 352.9261 0007950 120.6208 239.5585 15.51729281320314
STARLINK-1403,45701,53.1561,0.0001793,15.29360366,476.49395636358076,478.9524678356411,1 45701U 20035AW  26075.00002315 -.00012218  00000+0 -41168-3 0  9996,2 45701  53.1561   7.2426 0001793  83.0396 256.6549 15.29360366  5845
STARLINK-1407,45703,53.0337,0.0008971,15.6150328,377.24833929884517,389.37973474947285,1 45703U 20035AY  26075.00002315  .00176738  00000+0  19854-2 0  9990,2 45703  53.0337 284.9854 0008971 129.6866  14.8404 15.61503280  5990
STARLINK-1411,45706,53.0439,0.0004595,15.63462593,374.55965183797434,380.7682329040126,1 45706U 20035BB  26074.96065049  .00088460  00000+0  93480-3 0  9992,2 45706  53.0439 310.7591 0004595 159.4730 200.6470 15.63462593320903
STARLINK-1423,45710,53.0516,0.0007707,15.54221208,399.19011216100535,409.64474155456264,1 45710U 20035BF  26074.96062391  .00094736  00000+0  14168-2 0  9992,2 45710  53.0516 351.7604 0007707 135.5102 224.6528 15.54221208320322
STARLINK-1433,45711,53.0506,0.0007588,15.56202376,393.5174879738397,403.80195467812337,1 45711U 20035BG  26074.97744756  .00090282  00000+0  12565-2 0  9997,2 45711  53.0506 350.6341 0007588 128.1112 232.0584 15.56202376320348
STARLINK-1434,45712,53.0537,0.0005466,15.27425717,479.7605368717632,487.261690589693,1 45712U 20035BH  26074.91694622  .00039226  00000+0  14467-2 0  9992,2 45712  53.0537 351.1788 0005466 117.8927 242.2626 15.27425717320340
STARLINK-1465,45731,53.0501,0.0003746,15.51076249,411.0383488440084,416.12670511362103,1 45731U 20038B   26074.70393328  .00073481  00000+0  12368-2 0  9991,2 45731  53.0501 194.2803 0003746 310.0316  50.0363 15.51076249317319
STARLINK-1471,45735,53.0457,9.54e-05,15.49227207,418.33706685988363,419.6339578352399,1 45735U 20038F   26074.38842461  .00027206  00000+0  49689-3 0  9997,2 45735  53.0457 114.7157 0000954 318.7718  41.3217 15.49227207318413
STARLINK-1480,45741,53.051,0.0005949,15.47993899,418.54951807259386,426.64102933184495,1 45741U 20038M   26074.73556480  .00023679  00000+0  45252-3 0  9998,2 45741  53.0510 188.3369 0005949 201.7503 158.3252 15.47993899317416
STARLINK-1500,45744,53.0359,0.0001968,15.35172881,459.0612133391951,461.7528642728694,1 45744U 20038Q   26074.60267076  .00024977  00000+0  72973-3 0  9999,2 45744  53.0359 165.0067 0001968 297.7869  62.2933 15.35172881317724
STARLINK-1504,45746,53.0227,3.26e-05,15.53602285,405.99749016418264,406.43983015322556,1 45746U 20038S   26074.79878879  .00026970  00000+0  42170-3 0  9991,2 45746  53.0227 112.7025 0000326  26.8681 333.2345 15.53602285318469
STARLINK-1506,45747,53.075,0.0002364,15.26387315,484.9999200526008,488.2455784620488,1 45747U 20038T   26074.74997682  .00008601  00000+0  33901-3 0  9994,2 45747  53.0750 174.3285 0002364 267.9745  92.0982 15.26387315317613
STARLINK-1464,45751,53.0512,0.0002732,15.44729397,430.31272479609834,434.03387834487694,1 45751U 20038X   26074.65005033  .00033638  00000+0  71448-3 0  9995,2 45751  53.0512 176.2625 0002732 304.7980  55.2768 15.44729397317571
STARLINK-1477,45754,53.0482,0.0001543,15.14811908,520.4850286908968,522.6142719911923,1 45754U 20038AA  26074.70411842  .00028867  00000+0  15461-2 0  9993,2 45754  53.0482 185.6179 0001543  23.9919 336.1145 15.14811908317442
STARLINK-1478,45755,53.0512,0.0003425,15.56330136,395.967916411395,400.6097681133442,1 45755U 20038AB  26074.67205174  .00086324  00000+0  11977-2 0  9999,2 45755  53.0512 168.9348 0003425 290.7348  69.3296 15.56330136317661
STARLINK-1484,45756,52.995,0.0003657,16.12518064,237.52433770438256,242.36480256477898,1 45756U 20038AC  26074.55085368  .00954059  56321-3  83911-3 0  9996,2 45756  52.9950  25.8952 0003657 125.9334 234.2040 16.12518064319640
STARLINK-1493,45759,53.052,0.0003013,15.51406292,410.57320028661707,414.6653100059684,1 45759U 20038AF  26074.76547570  .00071696  00000+0  11932-2 0  9999,2 45759  53.0520 175.3123 0003013  27.9345 332.1825 15.51406292317589
STARLINK-1494,45760,53.0478,0.0006435,15.7506093,340.13181384993004,348.7837933621704,1 45760U 20038AG  26074.84511411  .00095405  00000+0  62364-3 0  9995,2 45760  53.0478 120.9870 0006435  24.3370 335.7951 15.75060930318365
STARLINK-1502,45764,53.0519,0.0004335,15.48181052,419.0993084801348,424.99506817141355,1 45764U 20038AL  26074.69207481  .00066705  00000+0  12449-2 0  9990,2 45764  53.0519 177.3414 0004335  14.6909 345.4224 15.48181052317563
STARLINK-1470,45772,53.0446,0.0002132,15.28596172,478.54584075518596,481.47015378202013,1 45772U 20038AU  26074.88664898  .00036263  00000+0  12924-2 0  9993,2 45772  53.0446 145.5409 0002132  22.7215 337.3878 15.28596172318023
STARLINK-1482,45773,53.1611,0.0001035,15.30467977,473.7058160140541,475.1242942894705,1 45773U 20038AV  26074.95092762  .00026112  00000+0  88333-3 0  9997,2 45773  53.1611 161.9311 0001035  73.4770 286.6345 15.30467977317806
STARLINK-1496,45780,53.0519,0.0002469,15.49369863,416.890175896081,420.2463889645451,1 45780U 20038BC  26074.90112797  .00070873  00000+0  12679-2 0  9993,2 45780  53.0519 148.0713 0002469 250.9405 109.1335 15.49369863317972
STARLINK-1513,45786,53.1625,8.35e-05,15.3018816,474.6781639033834,475.8226796028157,1 45786U 20038BJ  26074.96071060 -.00002817  00000+0 -83069-4 0  9990,2 45786  53.1625 162.0220 0000835  77.2835 282.8259 15.30188160317803
STARLINK-1522,46027,53.0615,0.0001843,15.09334583,536.9573726014369,539.5067462367379,1 46027U 20055A   26074.77420775  .00017531  00000+0  11018-2 0  9998,2 46027  53.0615  99.0531 0001843  69.5063 290.6126 15.09334583309800
STARLINK-1523,46028,53.1368,0.0002357,15.25951469,486.3115080930065,489.54817200140405,1 46028U 20055B   26075.00002315  .00121778  00000+0  46175-2 0  9993,2 46028  53.1368  97.2802 0002357  72.4514  53.2883 15.25951469  5849
STARLINK-1526,46029,53.1368,0.0002071,15.25938143,486.5478434555471,489.39178489797814,1 46029U 20055C   26075.00002315  .00116850  00000+0  44360-2 0  9993,2 46029  53.1368  97.2433 0002071  88.8795  97.2403 15.25938143  5845
STARLINK-1555,46032,53.1386,0.0002035,15.26348559,485.3419500362188,488.13595454880215,1 46032U 20055F   26075.00002315  .00122818  00000+0  46009-2 0  9990,2 46032  53.1386  97.3290 0002035  91.6192 127.3271 15.26348559  5849
STARLINK-1556,46033,53.1423,0.0001207,15.27183573,483.4081093930672,485.06468633131135,1 46033U 20055G   26075.00002315  .00127781  00000+0  46639-2 0  9994,2 46033  53.1423  97.2247 0001207  81.4244 294.6366 15.27183573  5799
STARLINK-1557,46034,53.1449,0.0001559,15.27750867,481.4679273031343,483.6070856142487,1 46034U 20055H   26075.00002315  .00135620  00000+0  48595-2 0  9999,2 46034  53.1449  97.1322 0001559  63.8780 342.8923 15.27750867  5847
STARLINK-1558,46035,53.1465,0.0001239,15.27043978,483.8043083428747,485.50490810339215,1 46035U 20055J   26075.00002315  .00807374  00000+0  27743-1 0  9993,2 46035  53.1465  97.3150 0001239  88.1513 178.4791 15.27043978  5794
STARLINK-1560,46036,53.1555,0.0001738,15.29321399,476.64810074554043,479.0312382358552,1 46036U 20055K   26075.00002315  .00050009  00000+0  17355-2 0  9998,2 46036  53.1555  97.1822 0001738  84.7559 333.8947 15.29321399  5748
